AKEBONO (EXOS-D)        
1 19822U 89016A   17052.20404835  .00028145  45705-6  56633-3 0  9990
2 19822  75.0342  63.5114 1935155 355.4875   3.0664 11.63186371895739
HST                     
1 20580U 90037B   17051.56320602  .00000679  00000-0  31054-4 0  9991
2 20580  28.4705  58.0980 0002758   4.8658 275.0510 15.08675587272650
POLAR                   
1 23802U 96013A   17050.13765107  .00000052  00000-0  00000+0 0  9993
2 23802  78.3638 273.0393 7428332 327.7038   3.5859  1.29842495100621
SWAS                    
1 25560U 98071A   17051.83453951  .00000302  00000-0  37443-4 0  9995
2 25560  69.8985 193.4472 0008362 341.7948  18.2907 14.93297903988177
ORSTED                  
1 25635U 99008B   17051.34054082  .00000090  00000-0  29715-4 0  9994
2 25635  96.4826 344.0213 0137318 260.0445  98.5231 14.47967585949320
CXO                     
1 25867U 99040B   17053.01247946  .00000663  00000-0  00000+0 0  9993
2 25867  74.6594 292.3701 6869267 254.9474   0.1563  0.37802867 15617
XMM-NEWTON              
1 25989U 99066A   17054.01379760 -.00000050  00000-0  00000+0 0  9998
2 25989  68.6087   9.8641 8222196  95.6535   0.5747  0.50138241 20314
TERRA                   
1 25994U 99068A   17052.08458416 -.00000153  00000-0 -24006-4 0  9999
2 25994  98.2059 128.7337 0001280  78.7258 281.4094 14.57110536913760
CLUSTER II-FM6 (SALSA)  
1 26410U 00041A   17054.29689205 -.00000145  00000-0  00000+0 0  9996
2 26410 131.0484 331.8968 4613781 148.8057 359.4968  0.44207933 16998
CLUSTER II-FM7 (SAMBA)  
1 26411U 00041B   17054.28220199 -.00000302  00000-0  00000+0 0  9994
2 26411 130.0638 333.3711 5211769 156.2896 359.5059  0.44220390 17071
CLUSTER II-FM5 (RUMBA)  
1 26463U 00045A   17054.29949190 -.00000229  00000-0  00000+0 0  9993
2 26463 133.5819 331.5504 4916434 154.2535 359.4856  0.44219859 17572
CLUSTER II-FM8 (TANGO)  
1 26464U 00045B   17051.32648208 -.00000185  00000-0  00000+0 0  9992
2 26464 131.0515 331.8642 4616088 148.7345 249.7232  0.44219857 52895
ODIN                    
1 26702U 01007A   17051.51131129  .00001019  00000-0  72125-4 0  9994
2 26702  97.6169  69.8196 0012780  91.4862 268.7830 15.07001196874074
TIMED                   
1 26998U 01055B   17051.82594229  .00000187  00000-0  24483-4 0  9991
2 26998  74.0724 186.6562 0002187 259.5922 100.5012 14.87853823824176
RHESSI                  
1 27370U 02004A   17051.42892375  .00002995  00000-0  11247-3 0  9992
2 27370  38.0330  40.1856 0011510 186.4545 173.6078 15.27823618828400
INTEGRAL                
1 27540U 02048A   17054.55226345  .00001042  00000-0  00000+0 0  9997
2 27540  50.3168 194.1397 8185468 260.9710   0.4348  0.37595904 13872
CORIOLIS                
1 27640U 03001A   17052.16286897  .00000013  00000-0  27509-4 0  9996
2 27640  98.7461  63.9450 0013028 281.6723 120.1476 14.18933122731495
SORCE                   
1 27651U 03004A   17051.03910732  .00000175  00000-0  32647-4 0  9996
2 27651  39.9946 254.5139 0021567 137.1802 223.0671 14.88585771763332
MOST                    
1 27843U 03031D   17051.05212144 -.00000004  00000-0  18648-4 0  9990
2 27843  98.7153  60.8503 0009817 357.8629   2.2504 14.20544504707327
SCISAT 1                
1 27858U 03036A   17052.15438862  .00000111  00000-0  20791-4 0  9990
2 27858  73.9322  57.1837 0008305 195.8457 164.2459 14.77109072728640
SWIFT                   
1 28485U 04047A   17051.52885366  .00001135  00000-0  48924-4 0  9990
2 28485  20.5559 230.1980 0011363 204.2833 155.7065 15.03579773670621
FORMOSAT-3 FM6          
1 29047U 06011A   17051.17808607  .00000032  00000-0  29107-4 0  9999
2 29047  71.9785  65.9329 0050708 351.2347   8.7897 14.28562454568054
FORMOSAT-3 FM1          
1 29048U 06011B   17051.86284802  .00000098  00000-0  55192-4 0  9996
2 29048  71.9694 336.8135 0045755 306.4134 109.1953 14.28500272570648
FORMOSAT-3 FM5          
1 29049U 06011C   17052.19242149  .00000070  00000-0  44247-4 0  9991
2 29049  72.0208 140.9432 0035671 342.2936  17.6954 14.28543673566461
FORMOSAT-3 FM3          
1 29050U 06011D   17052.17202652  .00000214  00000-0  55898-4 0  9990
2 29050  72.0155  50.5057 0049908   4.8688 355.2938 14.58454221579657
FORMOSAT-3 FM4          
1 29051U 06011E   17051.16528701  .00000023  00000-0  25108-4 0  9994
2 29051  72.0056  47.3115 0070140 224.0342 135.5196 14.28565613568908
FORMOSAT-3 FM2          
1 29052U 06011F   17051.52686307  .00000094  00000-0  53444-4 0  9994
2 29052  72.0343 117.1920 0042008 307.4059  52.3256 14.28654579567273
CLOUDSAT                
1 29107U 06016A   17052.17508778  .00000093  00000-0  30788-4 0  9992
2 29107  98.2284 357.8750 0002068  72.5350 287.6074 14.57107821575532
CALIPSO                 
1 29108U 06016B   17051.48724417  .00000162  00000-0  45954-4 0  9994
2 29108  98.2268 356.7413 0001322  80.7684 279.3664 14.57110108575368
HINODE (SOLAR-B)        
1 29479U 06041A   17051.70722079  .00000096  00000-0  27060-4 0  9994
2 29479  98.1654  57.0311 0016292 221.1940 138.8034 14.64790955556342
SJ-6C                   
1 29505U 06046A   17052.23592235  .00000682  00000-0  68891-4 0  9995
2 29505  97.8182  54.6623 0004381 105.0165 255.1542 14.94292016562553
SJ-6D                   
1 29506U 06046B   17052.18776547 -.00000501  00000-0 -42443-4 0  9997
2 29506  97.8370  53.8476 0002178 143.3952 216.7433 14.93232641562246
AGILE                   
1 31135U 07013A   17052.06655505  .00003086  00000-0  67127-4 0  9995
2 31135   2.4679 292.9757 0013080 351.0474   8.9346 15.29264941545906
AIM                     
1 31304U 07015A   17051.08226968  .00001407  00000-0  86490-4 0  9992
2 31304  97.9912 224.6186 0005650 161.8248 198.3184 15.11828471537248
FGRST (GLAST)           
1 33053U 08029A   17052.16374118  .00000668  00000-0  21929-4 0  9996
2 33053  25.5832  73.2657 0012617  21.9373 338.1701 15.10823596479758
IBEX                    
1 33401U 08051A   17046.30122294 -.00002781  00000-0  00000+0 0  9994
2 33401  21.4241  93.8181 6101883  23.0685   2.3234  0.10818784  3529
WISE                    
1 36119U 09071A   17051.54599652  .00001258  00000-0  48851-4 0  9992
2 36119  97.4626  79.2512 0003381  37.2530 322.8943 15.27970175398462
SDO                     
1 36395U 10005A   17051.32992959 -.00000083  00000-0  00000+0 0  9995
2 36395  28.6380 142.5291 0001474 175.0317 209.3138  1.00268295 25904
CRYOSAT 2               
1 36508U 10013A   17052.18637032  .00000087  00000-0  20804-4 0  9995
2 36508  92.0208 174.3149 0008604  32.6000 327.5737 14.52176476364328
GCOM-W1 (SHIZUKU)       
1 38337U 12025A   17051.43601341  .00000093  00000-0  30684-4 0  9997
2 38337  98.2062 353.3641 0001738  85.1757  26.0539 14.57055501253356
NUSTAR                  
1 38358U 12031A   17051.20584232  .00001148  00000-0  47555-4 0  9998
2 38358   6.0272  78.2363 0011441  48.0539 312.0564 14.87656273254994
RBSP A                  
1 38752U 12046A   17050.74533357 -.00000079  00000-0 -24406-3 0  9995
2 38752   9.8062 247.4694 6821651  28.9755 355.9224  2.68125656 43742
RBSP B                  
1 38753U 12046B   17050.63631336 -.00000082  00000-0 -54957-3 0  9998
2 38753   9.8555 256.7039 6834754  11.4363 358.4925  2.65148256 43414
NEOSSAT                 
1 39089U 13009D   17052.16534869  .00000004  00000-0  17153-4 0  9994
2 39089  98.5633 256.7365 0009961 283.5405  76.4670 14.34372984208769
BRITE-AUSTRIA           
1 39091U 13009F   17051.59499259  .00000030  00000-0  26002-4 0  9998
2 39091  98.5600 257.4777 0009509 296.8443  63.1769 14.35014627208779
UNIBRITE                
1 39092U 13009G   17052.14200254  .00000011  00000-0  19404-4 0  9993
2 39092  98.5606 257.7238 0008321 287.8122  72.2155 14.34887323208833
IRIS                    
1 39197U 13033A   17051.13739738  .00000190  00000-0  33220-4 0  9998
2 39197  97.9216 234.4794 0027604 191.3917 168.6672 14.78348784196813
HISAKI (SPRINT-A)       
1 39253U 13049A   17050.98151688  .00000040  00000-0 -33668-4 0  9993
2 39253  29.7184 240.0116 0136803 149.6731 211.1839 13.55167814170331
CASSIOPE                
1 39265U 13055A   17051.19241220  .00004944  00000-0  14731-3 0  9994
2 39265  80.9726 136.0316 0691892 231.2760 122.4609 14.21732695174876
DANDE                   
1 39267U 13055C   17051.87484005  .00003710  00000-0  11278-3 0  9994
2 39267  81.0155 144.9084 0716000 245.0044 107.5158 14.16213308174561
STSAT-3                 
1 39422U 13066G   17052.19285351 -.00000109  00000-0 -57046-5 0  9994
2 39422  97.6719 118.3175 0021579 258.4552 101.4261 14.89371751176669
BRITE-PL                
1 39431U 13066R   17051.51861674  .00000118  00000-0  34639-4 0  9997
2 39431  97.6946  39.7053 0203990 116.7373 245.4857 14.46805749171586
SWARM B                 
1 39451U 13067A   17051.17589434  .00000440  00000-0  18330-4 0  9991
2 39451  87.7499 282.8665 0003582 103.5727 256.5917 15.20888369180068
SWARM A                 
1 39452U 13067B   17051.87597458  .00002003  00000-0  46328-4 0  9999
2 39452  87.3492 212.8111 0003605  86.3552 273.8116 15.41784136182219
SWARM C                 
1 39453U 13067C   17051.87588690  .00001984  00000-0  45879-4 0  9995
2 39453  87.3492 214.2257 0003601  85.8067 274.3601 15.41783248182171
BRITE-TORONTO           
1 40020U 14033L   17052.17041149  .00000131  00000-0  31115-4 0  9999
2 40020  97.8541 288.0341 0087156 336.8891  22.8403 14.66354849143088
OCO 2                   
1 40059U 14035A   17051.48122211  .00000073  00000-0  26296-4 0  9995
2 40059  98.2273 354.6163 0001282  70.1515 289.9822 14.57103652140404
BRITE-PL 2              
1 40119U 14049B   17052.18212103  .00000159  00000-0  25556-4 0  9998
2 40119  97.9416 138.6798 0018976 106.9936 253.3359 14.84077791135951
RESURS P2               
1 40360U 14087A   17052.24077263  .00001855  00000-0  62109-4 0  9990
2 40360  97.2769 147.9579 0009909 175.8470 264.6525 15.32175681120637
MMS 1                   
1 40482U 15011A   17047.64617483 -.00000383  00000-0  00000+0 0  9998
2 40482  28.5612 312.5353 8265140 147.4183 128.7573  0.91202748  7092
MMS 2                   
1 40483U 15011B   17048.90656250 -.00000389  00000-0  00000+0 0  9990
2 40483  28.5174 312.4333 8351395 147.5640 198.9066  0.83998404  7098
MMS 3                   
1 40484U 15011C   17051.83170663 -.00000275  00000-0  00000+0 0  9990
2 40484  28.5336 312.2502 8355337 147.9060   5.5543  0.83989702  7134
MMS 4                   
1 40485U 15011D   17047.06250000 -.00000424  00000-0  00000+0 0  9991
2 40485  28.5511 312.6404 8349108 147.2942   5.5728  0.83994391  7074
ASTROSAT                
1 40930U 15052A   17051.44347442  .00000803  00000-0  24075-4 0  9998
2 40930   5.9961 347.0761 0008430  27.4894 332.5716 14.76086540 75678
DAMPE                   
1 41173U 15078A   17052.20900527  .00000203  00000-0  11385-4 0  9994
2 41173  97.2911  63.5255 0012833 198.5296 227.1590 15.23512978 65808
PISAT                   
1 41784U 16059B   17051.70467044  .00000111  00000-0  30947-4 0  9991
2 41784  98.1833 114.2798 0032561 163.6196 196.6066 14.63178051 21541
